start=new Date('2022-09-19T00:00:00.000Z').valueOf();
sats=[{"MEAN_ELEMENT_THEORY":"SGP4","TLE_LINE1":"1 48383U 21038AG  22261.30089654 -.00000671  00000-0 -26117-4 0  9995","EPHEMERIS_TYPE":"0","DECAY_DATE":null,"PERIAPSIS":"546.153","ARG_OF_PERICENTER":"75.9141","RCS_SIZE":"LARGE","MEAN_ANOMALY":"284.2018","TLE_LINE2":"2 48383  53.0538 285.6505 0001531  75.9141 284.2018 15.06400255 77210","LAUNCH_DATE":"2021-05-04","OBJECT_TYPE":"PAYLOAD","MEAN_MOTION_DOT":"-0.00000671","NORAD_CAT_ID":"48383","ECCENTRICITY":"0.00015310","SITE":"AFETR","RA_OF_ASC_NODE":"285.6505","OBJECT_ID":"2021-038AG","EPOCH":"2022-09-18T07:13:17.461056","COUNTRY_CODE":"US","FILE":"3577171","SEMIMAJOR_AXIS":"6925.348","GP_ID":"212907738","INCLINATION":"53.0538","REF_FRAME":"TEME","REV_AT_EPOCH":"7721","CLASSIFICATION_TYPE":"U","MEAN_MOTION":"15.06400255","CENTER_NAME":"EARTH","BSTAR":"-0.00002611700000","MEAN_MOTION_DDOT":"0.0000000000000","PERIOD":"95.592","APOAPSIS":"548.273","TIME_SYSTEM":"UTC","ELEMENT_SET_NO":"999","OBJECT_NAME":"STARLINK-2599"},{"EPOCH":"2022-09-18T18:16:46.169472","SEMIMAJOR_AXIS":"6925.366","FILE":"3577422","COUNTRY_CODE":"US","ECCENTRICITY":"0.00013150","SITE":"AFETR","RA_OF_ASC_NODE":"283.5794","OBJECT_ID":"2021-038AH","MEAN_MOTION_DDOT":"0.0000000000000","BSTAR":"0.00001166100000","CENTER_NAME":"EARTH","OBJECT_NAME":"STARLINK-2601","ELEMENT_SET_NO":"999","APOAPSIS":"548.142","PERIOD":"95.593","TIME_SYSTEM":"UTC","REV_AT_EPOCH":"7728","REF_FRAME":"TEME","INCLINATION":"53.0545","GP_ID":"212964288","MEAN_MOTION":"15.06394183","CLASSIFICATION_TYPE":"U","EPHEMERIS_TYPE":"0","ARG_OF_PERICENTER":"65.4233","PERIAPSIS":"546.321","DECAY_DATE":null,"MEAN_ELEMENT_THEORY":"SGP4","TLE_LINE1":"1 48384U 21038AH  22261.76164548 -.00000108  00000-0  11661-4 0  9994","MEAN_MOTION_DOT":"-0.00000108","NORAD_CAT_ID":"48384","MEAN_ANOMALY":"294.6893","RCS_SIZE":"LARGE","OBJECT_TYPE":"PAYLOAD","LAUNCH_DATE":"2021-05-04","TLE_LINE2":"2 48384  53.0545 283.5794 0001315  65.4233 294.6893 15.06394183 77287"},{"TLE_LINE1":"1 48385U 21038AJ  22261.55891959 -.00000659  00000-0 -25335-4 0  9990","MEAN_ELEMENT_THEORY":"SGP4","ARG_OF_PERICENTER":"71.4209","PERIAPSIS":"545.974","DECAY_DATE":null,"EPHEMERIS_TYPE":"0","OBJECT_TYPE":"PAYLOAD","LAUNCH_DATE":"2021-05-04","TLE_LINE2":"2 48385  53.0538 284.4888 0001818  71.4209 288.6977 15.06393598 77254","MEAN_ANOMALY":"288.6977","RCS_SIZE":"LARGE","NORAD_CAT_ID":"48385","MEAN_MOTION_DOT":"-0.00000659","SITE":"AFETR","OBJECT_ID":"2021-038AJ","RA_OF_ASC_NODE":"284.4888","ECCENTRICITY":"0.00018180","SEMIMAJOR_AXIS":"6925.368","FILE":"3577422","COUNTRY_CODE":"US","EPOCH":"2022-09-18T13:24:50.652576","CLASSIFICATION_TYPE":"U","MEAN_MOTION":"15.06393598","REV_AT_EPOCH":"7725","REF_FRAME":"TEME","INCLINATION":"53.0538","GP_ID":"212965033","OBJECT_NAME":"STARLINK-2598","APOAPSIS":"548.492","TIME_SYSTEM":"UTC","PERIOD":"95.593","ELEMENT_SET_NO":"999","MEAN_MOTION_DDOT":"0.0000000000000","BSTAR":"-0.00002533500000","CENTER_NAME":"EARTH"},{"ECCENTRICITY":"0.00012400","SITE":"AFETR","RA_OF_ASC_NODE":"280.7461","OBJECT_ID":"2021-038AK","EPOCH":"2022-09-18T06:44:46.588992","COUNTRY_CODE":"US","SEMIMAJOR_AXIS":"6925.324","FILE":"3577171","INCLINATION":"53.0544","GP_ID":"212906987","REV_AT_EPOCH":"7605","REF_FRAME":"TEME","CLASSIFICATION_TYPE":"U","MEAN_MOTION":"15.06408047","BSTAR":"0.00012129000000","CENTER_NAME":"EARTH","MEAN_MOTION_DDOT":"0.0000000000000","APOAPSIS":"548.048","PERIOD":"95.592","ELEMENT_SET_NO":"999","TIME_SYSTEM":"UTC","OBJECT_NAME":"STARLINK-2606","MEAN_ELEMENT_THEORY":"SGP4","TLE_LINE1":"1 48386U 21038AK  22261.28109478  .00001526  00000-0  12129-3 0  9997","EPHEMERIS_TYPE":"0","PERIAPSIS":"546.330","DECAY_DATE":null,"ARG_OF_PERICENTER":"65.9365","RCS_SIZE":"LARGE","MEAN_ANOMALY":"294.1754","LAUNCH_DATE":"2021-05-04","TLE_LINE2":"2 48386  53.0544 280.7461 0001240  65.9365 294.1754 15.06408047 76056","OBJECT_TYPE":"PAYLOAD","MEAN_MOTION_DOT":"0.00001526","NORAD_CAT_ID":"48386"},{"ECCENTRICITY":"0.00016960","SITE":"AFETR","OBJECT_ID":"2021-038AL","RA_OF_ASC_NODE":"278.4892","EPOCH":"2022-09-18T18:35:59.557632","SEMIMAJOR_AXIS":"6925.308","FILE":"3577422","COUNTRY_CODE":"US","REV_AT_EPOCH":"7613","REF_FRAME":"TEME","INCLINATION":"53.0543","GP_ID":"212964039","CLASSIFICATION_TYPE":"U","MEAN_MOTION":"15.06413268","MEAN_MOTION_DDOT":"0.0000000000000","BSTAR":"0.00043716000000","CENTER_NAME":"EARTH","OBJECT_NAME":"STARLINK-2600","PERIOD":"95.591","APOAPSIS":"548.347","ELEMENT_SET_NO":"999","TIME_SYSTEM":"UTC","MEAN_ELEMENT_THEORY":"SGP4","TLE_LINE1":"1 48387U 21038AL  22261.77499488  .00006238  00000-0  43716-3 0  9996","EPHEMERIS_TYPE":"0","ARG_OF_PERICENTER":"71.6162","PERIAPSIS":"545.998","DECAY_DATE":null,"MEAN_ANOMALY":"288.5012","RCS_SIZE":"MEDIUM","OBJECT_TYPE":"PAYLOAD","LAUNCH_DATE":"2021-05-04","TLE_LINE2":"2 48387  53.0543 278.4892 0001696  71.6162 288.5012 15.06413268 76136","MEAN_MOTION_DOT":"0.00006238","NORAD_CAT_ID":"48387"},{"BSTAR":"0.00001420500000","CENTER_NAME":"EARTH","MEAN_MOTION_DDOT":"0.0000000000000","APOAPSIS":"548.206","PERIOD":"95.593","ELEMENT_SET_NO":"999","TIME_SYSTEM":"UTC","OBJECT_NAME":"STARLINK-2594","INCLINATION":"53.0542","GP_ID":"212963789","REV_AT_EPOCH":"7613","REF_FRAME":"TEME","MEAN_MOTION":"15.06392183","CLASSIFICATION_TYPE":"U","EPOCH":"2022-09-18T18:30:42.264000","COUNTRY_CODE":"US","SEMIMAJOR_AXIS":"6925.373","FILE":"3577422","ECCENTRICITY":"0.00013990","SITE":"AFETR","OBJECT_ID":"2021-038AM","RA_OF_ASC_NODE":"278.5325","MEAN_MOTION_DOT":"-0.00000070","NORAD_CAT_ID":"48388","RCS_SIZE":"LARGE","MEAN_ANOMALY":"282.4128","LAUNCH_DATE":"2021-05-04","TLE_LINE2":"2 48388  53.0542 278.5325 0001399  77.7017 282.4128 15.06392183 76137","OBJECT_TYPE":"PAYLOAD","EPHEMERIS_TYPE":"0","PERIAPSIS":"546.269","DECAY_DATE":null,"ARG_OF_PERICENTER":"77.7017","MEAN_ELEMENT_THEORY":"SGP4","TLE_LINE1":"1 48388U 21038AM  22261.77132250 -.00000070  00000-0  14205-4 0  9999"},{"MEAN_MOTION_DOT":"0.00001714","NORAD_CAT_ID":"48389","MEAN_ANOMALY":"287.1550","RCS_SIZE":"LARGE","OBJECT_TYPE":"PAYLOAD","TLE_LINE2":"2 48389  53.0549 274.7779 0001360  72.9588 287.1550 15.06402341 76155","LAUNCH_DATE":"2021-05-04","EPHEMERIS_TYPE":"0","ARG_OF_PERICENTER":"72.9588","DECAY_DATE":null,"PERIAPSIS":"546.265","MEAN_ELEMENT_THEORY":"SGP4","TLE_LINE1":"1 48389U 21038AN  22261.49254372  .00001714  00000-0  13391-3 0  9998","MEAN_MOTION_DDOT":"0.0000000000000","CENTER_NAME":"EARTH","BSTAR":"0.00013391000000","OBJECT_NAME":"STARLINK-1904","TIME_SYSTEM":"UTC","APOAPSIS":"548.148","PERIOD":"95.592","ELEMENT_SET_NO":"999","REF_FRAME":"TEME","REV_AT_EPOCH":"7615","GP_ID":"212906740","INCLINATION":"53.0549","CLASSIFICATION_TYPE":"U","MEAN_MOTION":"15.06402341","EPOCH":"2022-09-18T11:49:15.777408","FILE":"3577171","SEMIMAJOR_AXIS":"6925.341","COUNTRY_CODE":"US","ECCENTRICITY":"0.00013600","SITE":"AFETR","RA_OF_ASC_NODE":"274.7779","OBJECT_ID":"2021-038AN"},{"MEAN_MOTION_DOT":"0.00001101","NORAD_CAT_ID":"48390","MEAN_ANOMALY":"292.5729","RCS_SIZE":"LARGE","OBJECT_TYPE":"PAYLOAD","LAUNCH_DATE":"2021-05-04","TLE_LINE2":"2 48390  53.0545 274.4980 0001526  67.5422 292.5729 15.06387977 77386","EPHEMERIS_TYPE":"0","ARG_OF_PERICENTER":"67.5422","PERIAPSIS":"546.194","DECAY_DATE":null,"MEAN_ELEMENT_THEORY":"SGP4","TLE_LINE1":"1 48390U 21038AP  22261.55615601  .00001101  00000-0  92860-4 0  9992","MEAN_MOTION_DDOT":"0.0000000000000","BSTAR":"0.00009286000000","CENTER_NAME":"EARTH","OBJECT_NAME":"STARLINK-2586","PERIOD":"95.593","APOAPSIS":"548.307","TIME_SYSTEM":"UTC","ELEMENT_SET_NO":"999","REV_AT_EPOCH":"7738","REF_FRAME":"TEME","INCLINATION":"53.0545","GP_ID":"212964787","MEAN_MOTION":"15.06387977","CLASSIFICATION_TYPE":"U","EPOCH":"2022-09-18T13:20:51.879264","SEMIMAJOR_AXIS":"6925.385","FILE":"3577422","COUNTRY_CODE":"US","ECCENTRICITY":"0.00015260","SITE":"AFETR","RA_OF_ASC_NODE":"274.4980","OBJECT_ID":"2021-038AP"},{"BSTAR":"0.00004742800000","CENTER_NAME":"EARTH","MEAN_MOTION_DDOT":"0.0000000000000","ELEMENT_SET_NO":"999","APOAPSIS":"548.266","PERIOD":"95.592","TIME_SYSTEM":"UTC","OBJECT_NAME":"STARLINK-2607","INCLINATION":"53.0543","GP_ID":"212963540","REV_AT_EPOCH":"7742","REF_FRAME":"TEME","MEAN_MOTION":"15.06394454","CLASSIFICATION_TYPE":"U","EPOCH":"2022-09-18T19:37:42.880224","COUNTRY_CODE":"US","SEMIMAJOR_AXIS":"6925.366","FILE":"3577422","ECCENTRICITY":"0.00014950","SITE":"AFETR","RA_OF_ASC_NODE":"273.3306","OBJECT_ID":"2021-038AQ","MEAN_MOTION_DOT":"0.00000425","NORAD_CAT_ID":"48391","RCS_SIZE":"LARGE","MEAN_ANOMALY":"295.0349","LAUNCH_DATE":"2021-05-04","TLE_LINE2":"2 48391  53.0543 273.3306 0001495  65.0796 295.0349 15.06394454 77426","OBJECT_TYPE":"PAYLOAD","EPHEMERIS_TYPE":"0","PERIAPSIS":"546.195","DECAY_DATE":null,"ARG_OF_PERICENTER":"65.0796","MEAN_ELEMENT_THEORY":"SGP4","TLE_LINE1":"1 48391U 21038AQ  22261.81785741  .00000425  00000-0  47428-4 0  9993"},{"APOAPSIS":"548.263","PERIOD":"95.593","TIME_SYSTEM":"UTC","ELEMENT_SET_NO":"999","OBJECT_NAME":"STARLINK-2605","CENTER_NAME":"EARTH","BSTAR":"0.00000646970000","MEAN_MOTION_DDOT":"0.0000000000000","CLASSIFICATION_TYPE":"U","MEAN_MOTION":"15.06391874","GP_ID":"212907982","INCLINATION":"53.0527","REF_FRAME":"TEME","REV_AT_EPOCH":"7736","COUNTRY_CODE":"US","FILE":"3577171","SEMIMAJOR_AXIS":"6925.373","EPOCH":"2022-09-18T09:59:10.235616","SITE":"AFETR","RA_OF_ASC_NODE":"275.1315","OBJECT_ID":"2021-038AR","ECCENTRICITY":"0.00014790","NORAD_CAT_ID":"48392","MEAN_MOTION_DOT":"-0.00000185","TLE_LINE2":"2 48392  53.0527 275.1315 0001479  77.8082 282.3073 15.06391874 77369","LAUNCH_DATE":"2021-05-04","OBJECT_TYPE":"PAYLOAD","RCS_SIZE":"LARGE","MEAN_ANOMALY":"282.3073","DECAY_DATE":null,"PERIAPSIS":"546.214","ARG_OF_PERICENTER":"77.8082","EPHEMERIS_TYPE":"0","TLE_LINE1":"1 48392U 21038AR  22261.41609069 -.00000185  00000-0  64697-5 0  9990","MEAN_ELEMENT_THEORY":"SGP4"}];
